OSCAR 7 (AO-7)          
1 07530U 74089B   20040.77184123 -.00000054  00000-0 -57075-4 0  9991
2 07530 101.7824  11.3232 0011898 251.9883 226.4413 12.53641953 69865
UOSAT 2 (UO-11)         
1 14781U 84021B   20041.51009560  .00000075  00000-0  15309-4 0  9993
2 14781  97.5969  59.8032 0007007 260.1587  99.8836 14.83141206933860
LUSAT (LO-19)           
1 20442U 90005G   20041.45146698 -.00000007  00000-0  13869-4 0  9995
2 20442  98.6778 348.3740 0011917 166.6104 193.5398 14.32944552570280
ITAMSAT (IO-26)         
1 22826U 93061D   20041.00239276 -.00000024  00000-0  87833-5 0  9996
2 22826  98.9144  40.1992 0009365  25.6545 334.5099 14.30412226375937
RADIO ROSTO (RS-15)     
1 23439U 94085A   20040.52118546 -.00000044  00000-0 -55047-4 0  9990
2 23439  64.8158  94.7566 0146307  66.9683 294.6595 11.27568787 34482
JAS-2 (FO-29)           
1 24278U 96046B   20041.39280943 -.00000056  00000-0 -19669-4 0  9991
2 24278  98.5668 168.0991 0350081 346.7169  12.4931 13.53095524159815
TECHSAT 1B (GO-32)      
1 25397U 98043D   20041.39493468 -.00000017  00000-0  11785-4 0  9998
2 25397  98.7159 343.9588 0002371  78.6080 281.5365 14.23678994121556
ISS (ZARYA)             
1 25544U 98067A   20041.35648148  .00000452  00000-0  16324-4 0  9997
2 25544  51.6446 260.9599 0004888 249.2039  92.3149 15.49151626212198
PCSAT (NO-44)           
1 26931U 01043C   20040.24988427 -.00000034  00000-0  18672-4 0  9995
2 26931  67.0513 115.8185 0006571 263.1987  96.8367 14.30566501958663
SAUDISAT 1C (SO-50)     
1 27607U 02058C   20041.48309253 -.00000035  00000-0  15803-4 0  9998
2 27607  64.5552  45.6275 0063662 208.9782 150.7782 14.75608386921975
CUTE-1 (CO-55)          
1 27844U 03031E   20040.82919986  .00000039  00000-0  37086-4 0  9990
2 27844  98.6841  50.4924 0010850  70.2431 289.9916 14.22220075861811
CUBESAT XI-IV (CO-57)   
1 27848U 03031J   20041.24082929  .00000028  00000-0  32298-4 0  9997
2 27848  98.6912  51.4405 0010814  80.1290 280.1108 14.21809462861753
MOZHAYETS 4 (RS-22)     
1 27939U 03042A   20041.55309863  .00000097  00000-0  26050-4 0  9998
2 27939  98.0689 178.2334 0013732  43.2864 316.9421 14.66835697875262
CUBESAT XI-V            
1 28895U 05043F   20040.62696325  .00000073  00000-0  22846-4 0  9995
2 28895  97.9880 180.7528 0015979 330.9126  29.1185 14.63735729761996
CUTE-1.7+APD II (CO-65) 
1 32785U 08021C   20040.99782450  .00000178  00000-0  24810-4 0  9991
2 32785  97.5638  34.7370 0012605 193.0078 167.0816 14.88414842638832
DELFI-C3 (DO-64)        
1 32789U 08021G   20041.10214799  .00000721  00000-0  51485-4 0  9997
2 32789  97.4359  88.2937 0012994  42.4046 317.8184 15.07441003642571
SEEDS II (CO-66)        
1 32791U 08021J   20040.48142243  .00000378  00000-0  43598-4 0  9998
2 32791  97.5353  40.3756 0013584 166.1822 193.9772 14.90968043639244
YUBILEINY (RS-30)       
1 32953U 08025A   20041.42793343  .00000037  00000-0  19437-3 0  9996
2 32953  82.5069 357.5299 0019273 337.1778  22.8445 12.43094296531725
KKS-1 (KISEKI)          
1 33499U 09002H   20040.74094030  .00000085  00000-0  20478-4 0  9990
2 33499  98.3308 251.7547 0009292 167.5401 192.6038 14.75502319594035
SWISSCUBE               
1 35932U 09051B   20040.46610447  .00000099  00000-0  33485-4 0  9990
2 35932  98.6025 218.6357 0008088 155.8283 204.3295 14.56355922551099
BEESAT-1                
1 35933U 09051C   20040.73014541  .00000095  00000-0  32379-4 0  9991
2 35933  98.6035 220.7503 0006078 165.0044 195.1334 14.56436510551244
ITUPSAT1                
1 35935U 09051E   20041.47455858  .00000057  00000-0  24215-4 0  9993
2 35935  98.6145 221.7346 0008423 163.9711 196.1753 14.55587389551086
XIWANG-1 (HOPE-1)       
1 36122U 09072B   20041.10998285 -.00000022  00000-0  51646-4 0  9992
2 36122 100.0848  37.4621 0007828 154.8778 205.2720 13.16353335487982
JUGNU                   
1 37839U 11058B   20041.16446498  .00000303  00000-0  20111-4 0  9999
2 37839  19.9622 340.7602 0018982  54.5783  73.4696 14.12670786430737
SRMSAT                  
1 37841U 11058D   20041.34178921  .00000297  00000-0  17775-4 0  9999
2 37841  19.9732  41.3552 0011619 276.5329 214.9598 14.10649019430143
M-CUBED & EXP-1 PRIME   
1 37855U 11061F   20040.56827100  .00000930  00000-0  53756-4 0  9994
2 37855 101.7263  62.5164 0171962  97.4057 264.6731 15.05984259451807
STRAND-1                
1 39090U 13009E   20041.07264411  .00000024  00000-0  23709-4 0  9997
2 39090  98.4668 247.8010 0008303 311.4076  48.6395 14.35117166364296
SOMP                    
1 39134U 13015E   20041.41732716  .00001340  00000-0  68969-4 0  9998
2 39134  64.8639 333.1789 0037690 265.1803  94.5021 15.20730531376589
BEESAT-3                
1 39135U 13015F   20041.17464277  .00001127  00000-0  63888-4 0  9994
2 39135  64.8681 355.6305 0045716 266.2988  93.2910 15.17918963376131
BEESAT-2                
1 39136U 13015G   20041.17031166  .00000760  00000-0  47560-4 0  9993
2 39136  64.8706   0.1998 0030341 278.7763  80.9927 15.17322254376040
ZACUBE-1 (TSHEPISOSAT)  
1 39417U 13066B   20040.67823034  .00000210  00000-0  32777-4 0  9992
2 39417  97.5624  45.8896 0058385 341.6249  18.2855 14.81219200335971
GOMX-1                  
1 39430U 13066Q   20041.38532790  .00000089  00000-0  25479-4 0  9997
2 39430  97.7769 347.7499 0149673 227.8391 131.0007 14.59346461331126
CUBEBUG-2 (LO-74)       
1 39440U 13066AA  20041.22593386  .00000210  00000-0  35996-4 0  9990
2 39440  97.6195  30.9017 0081111  37.4768 323.2060 14.75955498334863
FUNCUBE-1 (AO-73)       
1 39444U 13066AE  20040.54695099  .00000251  00000-0  37227-4 0  9996
2 39444  97.5581  47.9152 0057325 334.8221  25.0200 14.82059625334274
UWE-3                   
1 39446U 13066AG  20041.43399829  .00000214  00000-0  34921-4 0  9996
2 39446  97.5908  38.2868 0070200   8.7608 351.4811 14.78491236334243
SPROUT                  
1 39770U 14029E   20041.35403347  .00000578  00000-0  69706-4 0  9990
2 39770  97.8903 148.2729 0009650  34.8985 325.2853 14.87605225310017
UNISAT-6                
1 40012U 14033C   20041.38380958  .00000172  00000-0  32810-4 0  9997
2 40012  97.7270 262.3731 0059474  54.7118 305.9634 14.74066153303553
DUCHIFAT-1              
1 40021U 14033M   20040.75125087  .00000479  00000-0  54478-4 0  9991
2 40021  97.9365 331.2641 0012931 358.3423   1.7750 14.90806830306718
QB50P1                  
1 40025U 14033R   20041.04394473  .00000222  00000-0  29579-4 0  9995
2 40025  97.9130 325.4017 0012669   8.6224 351.5208 14.89067210306494
NUDT-PHONESAT           
1 40900U 15049B   20041.41124828  .00002140  00000-0  92175-4 0  9994
2 40900  97.4351  53.4938 0014451  75.7836  30.6718 15.23602174243697
ZDPS 2A                 
1 40901U 15049C   20041.48462567  .00000962  00000-0  50439-4 0  9994
2 40901  97.4616  48.9454 0015185  97.3213  55.3779 15.18065258243150
ZDPS 2B                 
1 40902U 15049D   20040.79589697  .00001232  00000-0  63783-4 0  9999
2 40902  97.4586  45.5912 0015175  97.2042   5.4476 15.18000257243021
XW-2A                   
1 40903U 15049E   20040.83369510  .00002048  00000-0  48947-4 0  9996
2 40903  97.3079  89.5945 0013798  18.1667  98.1397 15.42611079246645
KAITUO 1A               
1 40904U 15049F   20040.85517571  .00000522  00000-0  30889-4 0  9992
2 40904  97.4738  43.9294 0016145 106.9783  12.5236 15.15591983242766
2015-049G               
1 40905U 15049G   20041.51038300  .00000116  00000-0  98753-5 0  9999
2 40905  97.4801  41.8932 0017328 101.6462  56.3639 15.14455436242713
XW-2C                   
1 40906U 15049H   20040.80723586  .00000725  00000-0  41190-4 0  9996
2 40906  97.4741  44.0843 0016571  98.8538  25.5538 15.15922944242768
XW-2D                   
1 40907U 15049J   20041.48000956  .00000798  00000-0  44727-4 0  9990
2 40907  97.4729  44.4380 0015955  94.2412  30.4227 15.16137667242885
LILACSAT-2              
1 40908U 15049K   20041.49368272  .00000176  00000-0  13298-4 0  9999
2 40908  97.4864  42.9791 0017583 102.1002  18.2900 15.13950159242639
XW-2F                   
1 40910U 15049M   20041.48082035  .00001173  00000-0  61403-4 0  9990
2 40910  97.4669  46.8139 0016539  86.0122  79.2003 15.17697619242923
XW-2B                   
1 40911U 15049N   20041.11688032  .00000774  00000-0  43600-4 0  9995
2 40911  97.4741  44.7654 0015877  96.6752 328.7299 15.16065113242728
KAITUO 1B               
1 40912U 15049P   20041.53485190  .00001258  00000-0  61340-4 0  9991
2 40912  97.4492  50.8678 0016552  68.1135  49.6961 15.20059742243289
TIANWANG 1C (TW-1C)     
1 40926U 15051B   20041.50100186  .00017847  00000-0  21190-3 0  9994
2 40926  97.1044  92.7346 0006113 191.9384 275.5317 15.61214665247038
TIANWANG 1A (TW-1A)     
1 40928U 15051D   20041.39703986  .00002965  00000-0  71582-4 0  9996
2 40928  97.1237  72.3025 0008945 298.4149 187.2502 15.41939441245632
LAPAN-A2                
1 40931U 15052B   20039.80331911  .00000920  00000-0  39152-4 0  9995
2 40931   5.9981 180.0215 0013058 242.9124 117.0679 14.76628077236065
E-ST@R-II               
1 41459U 16025D   20040.78419793  .00000508  00000-0  30421-4 0  9998
2 41459  98.0963 144.1953 0164420 284.8414  73.4639 15.06023021208074
AAUSAT 4                
1 41460U 16025E   20041.50948535  .00001294  00000-0  68139-4 0  9992
2 41460  98.0911 146.8551 0154164 272.5344  85.8243 15.08153374208358
NUSAT-1 (FRESCO)        
1 41557U 16033B   20041.14490559  .00001166  00000-0  45700-4 0  9993
2 41557  97.4074 132.2294 0013779 175.3631 184.7739 15.27719945206187
BEESAT-4                
1 41619U 16040W   20040.65520829  .00001235  00000-0  54357-4 0  9994
2 41619  97.3378 103.1414 0009486 273.6466  86.3686 15.23670707189783
CAS-2T & KS-1Q          
1 41847U 16066G   20040.83414099  .00000061  00000-0  20532-4 0  9990
2 41847  98.6744  89.9278 0364751 252.0389 104.0727 14.38039234170930
NAYIF-1 (EO-88)         
1 42017U 17008BX  20041.11833223  .00001354  00000-0  55248-4 0  9991
2 42017  97.3761 110.4824 0007621  63.4409 296.7610 15.26127022165978
MAX VALIER SAT          
1 42778U 17036P   20040.72165643  .00000804  00000-0  37705-4 0  9993
2 42778  97.3240  97.8042 0013886 113.0181 247.2522 15.22389764146143
RADFXSAT (FOX-1B)       
1 43017U 17073E   20040.83476025  .00000405  00000-0  36402-4 0  9992
2 43017  97.7269 318.0149 0258818 109.2677 253.6725 14.78789659120150
FOX-1D (AO-92)          
1 43137U 18004AC  20040.85842225  .00000919  00000-0  41034-4 0  9998
2 43137  97.4608 112.8182 0010260 140.3013 219.8977 15.23870654115469
ES'HAIL 2               
1 43700U 18090A   20040.63618603  .00000137  00000-0  00000+0 0  9991
2 43700   0.0180 104.3971 0002436 245.0141  44.5722  1.00273281  4666
FOX-1CLIFF (AO-95)      
1 43770U 18099N   20040.99630564  .00000253  00000-0  28399-4 0  9991
2 43770  97.7202 114.5359 0013198 264.8204  95.1510 14.94903818 64723
ITASAT 1                
1 43786U 18099AE  20040.75517225  .00000549  00000-0  55032-4 0  9992
2 43786  97.7220 114.6256 0013706 259.0816 100.8863 14.95257323 64704
JY1SAT (JO-97)          
1 43803U 18099AX  20041.25254423 -.00000061  00000-0 -23915-6 0  9994
2 43803  97.7176 114.9670 0013860 258.0455 101.9212 14.95415273 64773
PSAT2 (NO-104)          
1 44354U 19036R   20040.64195204  .00007986  00000-0  11761-3 0  9995
2 44354  28.5304 145.0472 0374016  17.8547 343.4804 15.01023378 34430
BRICSAT2 (NO-103)       
1 44355U 19036S   20040.62202261  .00014121  00000-0  20581-3 0  9995
2 44355  28.5306 141.9702 0361299  22.8910 338.7358 15.04216783 34464
JAISAT-1                
1 44419U 19038F   20040.82756222  .00000760  00000-0  47153-4 0  9990
2 44419  97.5219   4.0868 0020780 210.5647 149.4375 15.12561503 33159
DUCHIFAT-3              
1 44854U 19089C   20041.33639821  .00000348  00000-0  34664-4 0  9996
2 44854  36.9674 135.4409 0007022  98.0508 262.1045 14.98967011  9060
